{
  "type": "FeatureCollection",
  "features": [
    {
      "type": "Feature",
      "properties": {
        "norad_id": 30893,
        "name": "FENGYUN 1C DEB",
        "group": "fengyun-1c-debris",
        "lat": 18.71053574100663,
        "lon": -154.1316468589432,
        "alt_km": 933.593544664498,
        "timestamp": "2025-12-22T22:44:21.254861+00:00",
        "meta_object_name": "FENGYUN 1C DEB",
        "meta_object_id": "1999-025AYF",
        "meta_epoch": "2025-12-18T08:03:40.157280",
        "meta_mean_motion": 13.9408223,
        "meta_eccentricity": 0.03091633,
        "meta_inclination": 98.2558,
        "meta_ra_of_asc_node": 18.9197,
        "meta_arg_of_pericenter": 77.2706,
        "meta_mean_anomaly": 348.8675,
        "meta_ephemeris_type": 0,
        "meta_classification_type": "U",
        "meta_norad_cat_id": 30893,
        "meta_element_set_no": 999,
        "meta_rev_at_epoch": 94963,
        "meta_bstar": 0.00050651987,
        "meta_mean_motion_dot": 9.62e-06,
        "meta_mean_motion_ddot": 0,
        "tle_line1": "1 30893U 99025AYF 25352.33588145  .00000962  00000+0  50652-3 0  9999",
        "tle_line2": "2 30893  98.2558  18.9197 0309163  77.2706 348.8675 13.94082230949632"
      },
      "geometry": {
        "type": "Point",
        "coordinates": [
          -154.1316468589432,
          18.71053574100663
        ]
      }
    },
    {
      "type": "Feature",
      "properties": {
        "norad_id": 30895,
        "name": "FENGYUN 1C DEB",
        "group": "fengyun-1c-debris",
        "lat": -15.744007858503718,
        "lon": 67.96499721957996,
        "alt_km": 841.7337623355015,
        "timestamp": "2025-12-22T22:44:21.254871+00:00",
        "meta_object_name": "FENGYUN 1C DEB",
        "meta_object_id": "1999-025AYH",
        "meta_epoch": "2025-12-20T03:51:08.120160",
        "meta_mean_motion": 14.31562737,
        "meta_eccentricity": 0.02182445,
        "meta_inclination": 98.7182,
        "meta_ra_of_asc_node": 62.6855,
        "meta_arg_of_pericenter": 102.3829,
        "meta_mean_anomaly": 289.3937,
        "meta_ephemeris_type": 0,
        "meta_classification_type": "U",
        "meta_norad_cat_id": 30895,
        "meta_element_set_no": 999,
        "meta_rev_at_epoch": 97899,
        "meta_bstar": 0.00020458307,
        "meta_mean_motion_dot": 6.58e-06,
        "meta_mean_motion_ddot": 0,
        "tle_line1": "1 30895U 99025AYH 25354.16051065  .00000658  00000+0  20458-3 0  9993",
        "tle_line2": "2 30895  98.7182  62.6855 0218244 102.3829 289.3937 14.31562737978992"
      },
      "geometry": {
        "type": "Point",
        "coordinates": [
          67.96499721957996,
          -15.744007858503718
        ]
      }
    },
    {
      "type": "Feature",
      "properties": {
        "norad_id": 30898,
        "name": "FENGYUN 1C DEB",
        "group": "fengyun-1c-debris",
        "lat": -66.50618441968464,
        "lon": 68.99552860917852,
        "alt_km": 530.5325363614847,
        "timestamp": "2025-12-22T22:44:21.254882+00:00",
        "meta_object_name": "FENGYUN 1C DEB",
        "meta_object_id": "1999-025AYL",
        "meta_epoch": "2025-12-22T12:11:50.527680",
        "meta_mean_motion": 15.23391231,
        "meta_eccentricity": 0.00414111,
        "meta_inclination": 99.025,
        "meta_ra_of_asc_node": 269.9157,
        "meta_arg_of_pericenter": 80.8144,
        "meta_mean_anomaly": 279.7769,
        "meta_ephemeris_type": 0,
        "meta_classification_type": "U",
        "meta_norad_cat_id": 30898,
        "meta_element_set_no": 999,
        "meta_rev_at_epoch": 66520,
        "meta_bstar": 0.0032272297,
        "meta_mean_motion_dot": 0.00079299,
        "meta_mean_motion_ddot": 0,
        "tle_line1": "1 30898U 99025AYL 25356.50822370  .00079299  00000+0  32272-2 0  9994",
        "tle_line2": "2 30898  99.0250 269.9157 0041411  80.8144 279.7769 15.23391231665206"
      },
      "geometry": {
        "type": "Point",
        "coordinates": [
          68.99552860917852,
          -66.50618441968464
        ]
      }
    },
    {
      "type": "Feature",
      "properties": {
        "norad_id": 30899,
        "name": "FENGYUN 1C DEB",
        "group": "fengyun-1c-debris",
        "lat": 49.37708488153819,
        "lon": 85.92790896116011,
        "alt_km": 789.1554824574332,
        "timestamp": "2025-12-22T22:44:21.254892+00:00",
        "meta_object_name": "FENGYUN 1C DEB",
        "meta_object_id": "1999-025AYM",
        "meta_epoch": "2025-12-22T12:39:57.136896",
        "meta_mean_motion": 14.33729751,
        "meta_eccentricity": 0.00306026,
        "meta_inclination": 99.1768,
        "meta_ra_of_asc_node": 254.6206,
        "meta_arg_of_pericenter": 262.1688,
        "meta_mean_anomaly": 222.6158,
        "meta_ephemeris_type": 0,
        "meta_classification_type": "U",
        "meta_norad_cat_id": 30899,
        "meta_element_set_no": 999,
        "meta_rev_at_epoch": 96795,
        "meta_bstar": 0.0023049821,
        "meta_mean_motion_dot": 6.39e-05,
        "meta_mean_motion_ddot": 0,
        "tle_line1": "1 30899U 99025AYM 25356.52774464  .00006390  00000+0  23050-2 0  9993",
        "tle_line2": "2 30899  99.1768 254.6206 0030602 262.1688 222.6158 14.33729751967954"
      },
      "geometry": {
        "type": "Point",
        "coordinates": [
          85.92790896116011,
          49.37708488153819
        ]
      }
    },
    {
      "type": "Feature",
      "properties": {
        "norad_id": 30903,
        "name": "FENGYUN 1C DEB",
        "group": "fengyun-1c-debris",
        "lat": 14.56353836853379,
        "lon": -119.6954966706433,
        "alt_km": 857.9677088743256,
        "timestamp": "2025-12-22T22:44:21.254902+00:00",
        "meta_object_name": "FENGYUN 1C DEB",
        "meta_object_id": "1999-025AYR",
        "meta_epoch": "2025-12-19T10:28:48.530784",
        "meta_mean_motion": 13.9760163,
        "meta_eccentricity": 0.0096627,
        "meta_inclination": 99.3709,
        "meta_ra_of_asc_node": 239.183,
        "meta_arg_of_pericenter": 75.1557,
        "meta_mean_anomaly": 286.0284,
        "meta_ephemeris_type": 0,
        "meta_classification_type": "U",
        "meta_norad_cat_id": 30903,
        "meta_element_set_no": 999,
        "meta_rev_at_epoch": 68798,
        "meta_bstar": -3.3732e-05,
        "meta_mean_motion_dot": -9.5e-07,
        "meta_mean_motion_ddot": 0,
        "tle_line1": "1 30903U 99025AYR 25353.43667281 -.00000095  00000+0 -33732-4 0  9992",
        "tle_line2": "2 30903  99.3709 239.1830 0096627  75.1557 286.0284 13.97601630687984"
      },
      "geometry": {
        "type": "Point",
        "coordinates": [
          -119.6954966706433,
          14.56353836853379
        ]
      }
    },
    {
      "type": "Feature",
      "properties": {
        "norad_id": 30905,
        "name": "FENGYUN 1C DEB",
        "group": "fengyun-1c-debris",
        "lat": 30.813643188861153,
        "lon": 66.99770723251211,
        "alt_km": 792.6591221466933,
        "timestamp": "2025-12-22T22:44:21.254912+00:00",
        "meta_object_name": "FENGYUN 1C DEB",
        "meta_object_id": "1999-025AYT",
        "meta_epoch": "2025-12-19T23:27:42.496416",
        "meta_mean_motion": 14.17868833,
        "meta_eccentricity": 0.00564293,
        "meta_inclination": 98.8891,
        "meta_ra_of_asc_node": 69.3817,
        "meta_arg_of_pericenter": 60.2635,
        "meta_mean_anomaly": 300.4138,
        "meta_ephemeris_type": 0,
        "meta_classification_type": "U",
        "meta_norad_cat_id": 30905,
        "meta_element_set_no": 999,
        "meta_rev_at_epoch": 96225,
        "meta_bstar": 0.00069884909,
        "meta_mean_motion_dot": 1.406e-05,
        "meta_mean_motion_ddot": 0,
        "tle_line1": "1 30905U 99025AYT 25353.97757519  .00001406  00000+0  69885-3 0  9999",
        "tle_line2": "2 30905  98.8891  69.3817 0056429  60.2635 300.4138 14.17868833962256"
      },
      "geometry": {
        "type": "Point",
        "coordinates": [
          66.99770723251211,
          30.813643188861153
        ]
      }
    },
    {
      "type": "Feature",
      "properties": {
        "norad_id": 30907,
        "name": "FENGYUN 1C DEB",
        "group": "fengyun-1c-debris",
        "lat": -64.60713613028553,
        "lon": 176.46690827892124,
        "alt_km": 878.4223760744235,
        "timestamp": "2025-12-22T22:44:21.254932+00:00",
        "meta_object_name": "FENGYUN 1C DEB",
        "meta_object_id": "1999-025AYV",
        "meta_epoch": "2025-12-17T21:06:12.131712",
        "meta_mean_motion": 14.15106189,
        "meta_eccentricity": 0.00565923,
        "meta_inclination": 99.9513,
        "meta_ra_of_asc_node": 12.5269,
        "meta_arg_of_pericenter": 124.1859,
        "meta_mean_anomaly": 236.4694,
        "meta_ephemeris_type": 0,
        "meta_classification_type": "U",
        "meta_norad_cat_id": 30907,
        "meta_element_set_no": 999,
        "meta_rev_at_epoch": 1622,
        "meta_bstar": 0.00072022378,
        "meta_mean_motion_dot": 1.366e-05,
        "meta_mean_motion_ddot": 0,
        "tle_line1": "1 30907U 99025AYV 25351.87930708  .00001366  00000+0  72022-3 0  9993",
        "tle_line2": "2 30907  99.9513  12.5269 0056592 124.1859 236.4694 14.15106189 16220"
      },
      "geometry": {
        "type": "Point",
        "coordinates": [
          176.46690827892124,
          -64.60713613028553
        ]
      }
    }
  ]
}